CELESTIS-02             
1 25160U 98007D   23028.50329134  .00000144  00000+0  12201-3 0  9997
2 25160 107.9917 359.9622 0060578  84.8306  23.8309 14.21693770295068
CELESTIS-03             
1 26034U 99070C   23028.11772401  .00044893  00000+0  15337-2 0  9996
2 26034  98.2969  62.8477 0009376  82.3796 277.8506 15.30118423255289
